{
  "type": "FeatureCollection",
  "features": [
    {
      "type": "Feature",
      "properties": {},
      "geometry": {
        "type": "Polygon",
        "coordinates": [
          [
            [
              -140.88052521585954,
              53.429748218382684
            ],
            [
              -55.19003993125402,
              51.68076744602212
            ],
            [
              -73.68944742584381,
              18.132349527282187
            ],
            [
              -124.81423178915236,
              19.252315043824353
            ],
            [
              -140.88052521585954,
              53.429748218382684
            ]
          ]
        ]
      }
    }
  ]
}